STARLINK-1238           
1 45233U 20012BH  24012.14872984  .00019982  00000+0  13555-2 0  9993
2 45233  53.0562 322.0291 0001225  91.8119 268.3011 15.06428291215476
STARLINK-1243           
1 45234U 20012BJ  24012.12108949  .00005901  00000+0  41456-3 0  9993
2 45234  53.0554 342.1497 0001373  88.7389 271.3757 15.06412352215222
STARLINK-1246           
1 45235U 20012BK  24012.17269513  .00009385  00000+0  64786-3 0  9995
2 45235  53.0550 341.9187 0001366  96.8419 263.2726 15.06414277215233
STARLINK-1247           
1 45236U 20012BL  24011.95521249  .00005753  00000+0  40462-3 0  9998
2 45236  53.0557 302.8962 0001100  98.2085 261.9028 15.06417571216667
STARLINK-1270           
1 45237U 20012BM  24012.11002585  .00020981  00000+0  14222-2 0  9999
2 45237  53.0547 302.2049 0001163  92.9587 267.1535 15.06427848215752
STARLINK-1279           
1 45360U 20019A   24011.53778938  .00001838  00000+0  14223-3 0  9992
2 45360  53.0544  74.7641 0001444 102.9835 257.1315 15.06399149211343
STARLINK-1301           
1 45361U 20019B   24011.45945998  .00002510  00000+0  18732-3 0  9993
2 45361  53.0536  85.1222 0001415  83.7379 276.3771 15.06402147211200
STARLINK-1306           
1 45362U 20019C   24011.63823172 -.00000659  00000+0 -25341-4 0  9992
2 45362  53.0544 104.3195 0001439  91.5961 268.5193 15.06396374210948
STARLINK-1313           
1 45364U 20019E   24011.40505207  .00026472  00000+0  10410-2 0  9993
2 45364  53.0275  45.1575 0000899  81.1406 278.9693 15.25501691211754
STARLINK-1262           
1 45366U 20019G   24011.68983375  .00000031  00000+0  20984-4 0  9993
2 45366  53.0554 104.0883 0001341  84.3848 275.7294 15.06394026210966
STARLINK-1273           
1 45367U 20019H   24011.64559640  .00000487  00000+0  51605-4 0  9993
2 45367  53.0545 104.2869 0001320  96.8662 263.2477 15.06394976210950
STARLINK-1276           
1 45368U 20019J   24011.54976540  .00000377  00000+0  44178-4 0  9990
2 45368  53.0547 104.7142 0001296  97.9299 262.1837 15.06393339210941
STARLINK-1277           
1 45369U 20019K   24011.54882178 -.00000789  00000+0 -34071-4 0  9994
2 45369  53.0559 104.7199 0001429 107.3403 252.7743 15.06390779210944
STARLINK-1281           
1 45370U 20019L   24011.53871021  .00000821  00000+0  74008-4 0  9999
2 45370  53.0542 104.7671 0001275  88.1385 271.9750 15.06395461210941
STARLINK-1287           
1 45371U 20019M   24011.63359314  .00000669  00000+0  63775-4 0  9996
2 45371  53.0550 104.3267 0001327  95.7917 264.3223 15.06398098210952
STARLINK-1288           
1 45372U 20019N   24011.51659602  .00000852  00000+0  76067-4 0  9999
2 45372  53.0552 104.8645 0001438 106.9454 253.1692 15.06392840210937
STARLINK-1295           
1 45373U 20019P   24011.63086216  .00001639  00000+0  12896-3 0  9991
2 45373  53.0562 104.3484 0001502  97.7095 262.4064 15.06387074210956
STARLINK-1300           
1 45374U 20019Q   24011.62716968 -.00001451  00000+0 -78518-4 0  9993
2 45374  53.0539 104.3708 0001460  91.2617 268.8539 15.06407975210952
STARLINK-1302           
1 45375U 20019R   24011.64191120  .00001101  00000+0  92801-4 0  9994
2 45375  53.0542 104.3024 0001336 104.8472 255.2665 15.06396459210954
STARLINK-1304           
1 45376U 20019S   24011.66034659 -.00000341  00000+0 -40118-5 0  9992
2 45376  53.0555 104.2193 0001507  52.9022 307.2105 15.06401151210952
STARLINK-1305           
1 45377U 20019T   24011.48710383  .00000012  00000+0  19672-4 0  9991
2 45377  53.0542 104.9963 0001402 104.5594 255.5551 15.06394928210934
STARLINK-1310           
1 45378U 20019U   24011.47603961 -.00000930  00000+0 -43548-4 0  9994
2 45378  53.0544 105.0406 0001834 128.5217 231.5936 15.06395738210939
STARLINK-1319           
1 45379U 20019V   24011.54607945 -.00000632  00000+0 -23577-4 0  9998
2 45379  53.0553 104.7320 0001321  90.2443 269.8697 15.06393318210949
STARLINK-1207           
1 45380U 20019W   24011.47788670  .00000343  00000+0  41935-4 0  9992
2 45380  53.0552  85.0378 0001514  80.3835 279.7324 15.06397391211205
STARLINK-1258           
1 45381U 20019X   24011.42259834  .00000279  00000+0  37613-4 0  9999
2 45381  53.0552  85.2896 0001406  87.8578 272.2572 15.06397229211190
STARLINK-1266           
1 45383U 20019Z   24011.61426944  .00001307  00000+0  10663-3 0  9998
2 45383  53.0536  84.4266 0001342  67.3748 292.7383 15.06399452211228
STARLINK-1267           
1 45384U 20019AA  24011.60226635 -.00000163  00000+0  79297-5 0  9993
2 45384  53.0547  84.4671 0001085 102.0495 258.0615 15.06397846211229
STARLINK-1272           
1 45386U 20019AC  24011.47419917  .00000596  00000+0  58897-4 0  9998
2 45386  53.0543  85.0520 0001464  92.1306 267.9851 15.06398979211205
STARLINK-1274           
1 45387U 20019AD  24011.96074148  .00003554  00000+0  25727-3 0  9998
2 45387  53.0531  82.8689 0001282  97.7385 262.3750 15.06409637211256
STARLINK-1280           
1 45388U 20019AE  24011.53133622  .00000467  00000+0  50260-4 0  9996
2 45388  53.0544 104.7974 0001271  85.6617 274.4517 15.06396807210937
STARLINK-1283           
1 45389U 20019AF  24012.17452608  .00008262  00000+0  57278-3 0  9992
2 45389  53.0535  81.9134 0001304  95.7617 264.3520 15.06406044211311
STARLINK-1284           
1 45390U 20019AG  24011.61795516  .00000694  00000+0  65466-4 0  9990
2 45390  53.0543  84.4120 0001399  74.0729 286.0415 15.06398150211225
STARLINK-1289           
1 45391U 20019AH  24011.49906666 -.00000267  00000+0  93474-6 0  9996
2 45391  53.0558  84.9318 0001346 104.7141 255.3997 15.06391566210932
STARLINK-1290           
1 45392U 20019AJ  24012.10998381  .00067060  00000+0  77498-3 0  9999
2 45392  52.9773 314.6364 0003203 105.3422 254.7944 15.61280788212725
STARLINK-1291           
1 45393U 20019AK  24011.59583591  .00002830  00000+0  20880-3 0  9992
2 45393  53.0537  84.5075 0001487  92.2492 267.8667 15.06402517210989
STARLINK-1292           
1 45394U 20019AL  24012.15609407  .00000698  00000+0  65768-4 0  9996
2 45394  53.0554  81.9915 0001424  89.9757 270.1395 15.06406071211043
STARLINK-1297           
1 45395U 20019AM  24012.18557751 -.00000195  00000+0  58198-5 0  9997
2 45395  53.0542  81.8607 0001279  96.0028 264.1107 15.06416918211074
STARLINK-1303           
1 45396U 20019AN  24011.63638124  .00001338  00000+0  10871-3 0  9994
2 45396  53.0543  84.3288 0001401  76.6502 283.4643 15.06397113210946
STARLINK-1307           
1 45397U 20019AP  24011.51475727  .00001679  00000+0  13159-3 0  9990
2 45397  53.0547  84.8743 0001351  74.8602 285.2536 15.06391156211030
STARLINK-1312           
1 45398U 20019AQ  24011.50737722  .00000529  00000+0  54390-4 0  9992
2 45398  53.0541  84.9064 0001504  72.8229 287.2924 15.06392391210961
STARLINK-1255           
1 45399U 20019AR  24011.61520498  .00002600  00000+0  19350-3 0  9993
2 45399  53.0549  74.4265 0001476  76.6448 283.4705 15.06380111211176
STARLINK-1213           
1 45400U 20019AS  24012.13152000  .00013354  00000+0  58062-3 0  9995
2 45400  53.0712  52.4135 0002386 134.3563 225.7629 15.22584255211463
STARLINK-1256           
1 45401U 20019AT  24011.49355299  .00002009  00000+0  15370-3 0  9999
2 45401  53.0536  74.9662 0001245  92.4239 267.6892 15.06399712211156
STARLINK-1257           
1 45402U 20019AU  24011.48349601  .00053972  00000+0  26976-2 0  9997
2 45402  53.0501  70.7538 0001084 245.7653 114.3227 15.16953530211222
STARLINK-1259           
1 45403U 20019AV  24011.96903189  .00004224  00000+0  30219-3 0  9990
2 45403  53.0552  72.8335 0001663 121.9251 238.1899 15.06411343211229
STARLINK-1260           
1 45404U 20019AW  24012.17912880  .00003437  00000+0  24944-3 0  9996
2 45404  53.0541  71.8916 0001240  85.8107 274.3023 15.06415623211160
STARLINK-1263           
1 45405U 20019AX  24011.43458178  .00001876  00000+0  14482-3 0  9991
2 45405  53.0535  75.2327 0001318  97.3514 262.7624 15.06397060211054
STARLINK-1265           
1 45406U 20019AY  24012.17175934  .00002095  00000+0  15943-3 0  9997
2 45406  53.0532  71.9184 0001356 112.3745 247.7388 15.06414081211167
STARLINK-1275           
1 45407U 20019AZ  24011.58844701  .00007917  00000+0  54978-3 0  9996
2 45407  53.0540  74.5443 0001382  74.2763 285.8378 15.06400309211079
STARLINK-1278           
1 45408U 20019BA  24011.53501914  .00002204  00000+0  16679-3 0  9998
2 45408  53.0548 104.7821 0001359  95.8345 264.2799 15.06402579210655
STARLINK-1282           
1 45409U 20019BB  24011.99483665  .00005124  00000+0  36247-3 0  9998
2 45409  53.0539  72.7179 0001295  84.8521 275.2616 15.06414549211144
STARLINK-1293           
1 45411U 20019BD  24012.14227501 -.00003600  00000+0 -22283-3 0  9998
2 45411  53.0527  72.0543 0001404  94.6631 265.4518 15.06411276211163
STARLINK-1296           
1 45412U 20019BE  24011.44564256  .00001603  00000+0  12648-3 0  9995
2 45412  53.0536  75.1865 0001602  70.0765 290.0397 15.06394713211054
STARLINK-1298           
1 45413U 20019BF  24011.93954928  .00003685  00000+0  26608-3 0  9992
2 45413  53.0542  72.9684 0001295  93.1254 266.9883 15.06409292211223
STARLINK-1309           
1 45414U 20019BG  24012.12384286  .00003052  00000+0  22363-3 0  9991
2 45414  53.0552  72.1364 0001308  85.8278 274.2861 15.06412945211161
STARLINK-1316           
1 45415U 20019BH  24011.95060953  .00006486  00000+0  45391-3 0  9994
2 45415  53.0531  72.9180 0001317  95.3709 264.7431 15.06402738211153
STARLINK-1318           
1 45416U 20019BJ  24011.45301017  .00000759  00000+0  69832-4 0  9993
2 45416  53.0534  75.1489 0001313  88.3433 271.7707 15.06395278211060
STARLINK-1286           
1 45417U 20019BK  24011.52396356  .00000532  00000+0  54621-4 0  9991
2 45417  53.0546 104.8296 0001085  90.2770 269.8343 15.06393902210922
STARLINK-1308           
1 45419U 20019BM  24011.52026887 -.00001615  00000+0 -89551-4 0  9997
2 45419  53.0547 104.8464 0001702 134.6323 225.4805 15.06403148210672
